[{"OBJECT_NAME":"ONEWEB-0208","OBJECT_ID":"2021-031AK","EPOCH":"2026-04-29T05:11:22.132032","MEAN_MOTION":13.14501446,"ECCENTRICITY":0.0001546,"INCLINATION":87.8926,"RA_OF_ASC_NODE":299.4778,"ARG_OF_PERICENTER":81.8937,"MEAN_ANOMALY":278.2368,"EPHEMERIS_TYPE":0,"CLASSIFICATION_TYPE":"U","NORAD_CAT_ID":48243,"ELEMENT_SET_NO":999,"REV_AT_EPOCH":24187,"BSTAR":6.7767e-05,"MEAN_MOTION_DOT":3.8e-07,"MEAN_MOTION_DDOT":0.0},{"OBJECT_NAME":"ONEWEB-0200","OBJECT_ID":"2021-031AL","EPOCH":"2026-04-29T06:08:27.039264","MEAN_MOTION":13.14503334,"ECCENTRICITY":0.0001606,"INCLINATION":87.8922,"RA_OF_ASC_NODE":299.4571,"ARG_OF_PERICENTER":91.0491,"MEAN_ANOMALY":269.0823,"EPHEMERIS_TYPE":0,"CLASSIFICATION_TYPE":"U","NORAD_CAT_ID":48244,"ELEMENT_SET_NO":999,"REV_AT_EPOCH":24180,"BSTAR":0.00086191,"MEAN_MOTION_DOT":3.32e-06,"MEAN_MOTION_DDOT":0.0},{"OBJECT_NAME":"ONEWEB-0217","OBJECT_ID":"2021-031AM","EPOCH":"2026-04-29T04:41:40.715232","MEAN_MOTION":13.1450305,"ECCENTRICITY":0.0001491,"INCLINATION":87.8932,"RA_OF_ASC_NODE":299.4709,"ARG_OF_PERICENTER":82.3673,"MEAN_ANOMALY":277.7626,"EPHEMERIS_TYPE":0,"CLASSIFICATION_TYPE":"U","NORAD_CAT_ID":48245,"ELEMENT_SET_NO":999,"REV_AT_EPOCH":24174,"BSTAR":0.00020730000000000002,"MEAN_MOTION_DOT":9e-07,"MEAN_MOTION_DDOT":0.0},{"OBJECT_NAME":"ONEWEB-0211","OBJECT_ID":"2021-045A","EPOCH":"2026-04-29T05:37:03.895104","MEAN_MOTION":13.16193941,"ECCENTRICITY":0.0001601,"INCLINATION":87.8956,"RA_OF_ASC_NODE":268.8535,"ARG_OF_PERICENTER":75.2824,"MEAN_ANOMALY":284.8485,"EPHEMERIS_TYPE":0,"CLASSIFICATION_TYPE":"U","NORAD_CAT_ID":48767,"ELEMENT_SET_NO":999,"REV_AT_EPOCH":23800,"BSTAR":9.726300000000001e-05,"MEAN_MOTION_DOT":5e-07,"MEAN_MOTION_DDOT":0.0},{"OBJECT_NAME":"ONEWEB-0223","OBJECT_ID":"2021-045B","EPOCH":"2026-04-29T03:16:16.055616","MEAN_MOTION":13.15548381,"ECCENTRICITY":0.0001857,"INCLINATION":87.896,"RA_OF_ASC_NODE":268.9683,"ARG_OF_PERICENTER":84.2333,"MEAN_ANOMALY":275.9009,"EPHEMERIS_TYPE":0,"CLASSIFICATION_TYPE":"U","NORAD_CAT_ID":48768,"ELEMENT_SET_NO":999,"REV_AT_EPOCH":23795,"BSTAR":-0.00045255,"MEAN_MOTION_DOT":-1.58e-06,"MEAN_MOTION_DDOT":0.0},{"OBJECT_NAME":"ONEWEB-0230","OBJECT_ID":"2021-045C","EPOCH":"2026-04-29T02:35:12.049440","MEAN_MOTION":13.15548352,"ECCENTRICITY":0.0001868,"INCLINATION":87.8954,"RA_OF_ASC_NODE":268.9923,"ARG_OF_PERICENTER":101.0954,"MEAN_ANOMALY":259.0386,"EPHEMERIS_TYPE":0,"CLASSIFICATION_TYPE":"U","NORAD_CAT_ID":48769,"ELEMENT_SET_NO":999,"REV_AT_EPOCH":23821,"BSTAR":0.00030961,"MEAN_MOTION_DOT":1.29e-06,"MEAN_MOTION_DDOT":0.0},{"OBJECT_NAME":"ONEWEB-0237","OBJECT_ID":"2021-045D","EPOCH":"2026-04-28T22:40:11.093376","MEAN_MOTION":13.15548038,"ECCENTRICITY":0.0001969,"INCLINATION":87.8953,"RA_OF_ASC_NODE":269.0266,"ARG_OF_PERICENTER":90.8053,"MEAN_ANOMALY":269.3303,"EPHEMERIS_TYPE":0,"CLASSIFICATION_TYPE":"U","NORAD_CAT_ID":48770,"ELEMENT_SET_NO":999,"REV_AT_EPOCH":23791,"BSTAR":0.00011970000000000001,"MEAN_MOTION_DOT":5.8e-07,"MEAN_MOTION_DDOT":0.0},{"OBJECT_NAME":"ONEWEB-0235","OBJECT_ID":"2021-045E","EPOCH":"2026-04-29T03:32:13.182720","MEAN_MOTION":13.15548702,"ECCENTRICITY":0.0001939,"INCLINATION":87.8961,"RA_OF_ASC_NODE":268.967,"ARG_OF_PERICENTER":84.9489,"MEAN_ANOMALY":275.1863,"EPHEMERIS_TYPE":0,"CLASSIFICATION_TYPE":"U","NORAD_CAT_ID":48771,"ELEMENT_SET_NO":999,"REV_AT_EPOCH":23793,"BSTAR":-0.00033134,"MEAN_MOTION_DOT":-1.12e-06,"MEAN_MOTION_DDOT":0.0},{"OBJECT_NAME":"ONEWEB-0242","OBJECT_ID":"2021-045F","EPOCH":"2026-04-29T03:23:05.142336","MEAN_MOTION":13.15549053,"ECCENTRICITY":0.0001981,"INCLINATION":87.8963,"RA_OF_ASC_NODE":268.9644,"ARG_OF_PERICENTER":94.7091,"MEAN_ANOMALY":265.4266,"EPHEMERIS_TYPE":0,"CLASSIFICATION_TYPE":"U","NORAD_CAT_ID":48772,"ELEMENT_SET_NO":999,"REV_AT_EPOCH":23797,"BSTAR":-0.0004049,"MEAN_MOTION_DOT":-1.4e-06,"MEAN_MOTION_DDOT":0.0},{"OBJECT_NAME":"ONEWEB-0241","OBJECT_ID":"2021-045G","EPOCH":"2026-04-29T03:04:51.658752","MEAN_MOTION":13.15548375,"ECCENTRICITY":0.0001695,"INCLINATION":87.8953,"RA_OF_ASC_NODE":268.9907,"ARG_OF_PERICENTER":83.7935,"MEAN_ANOMALY":276.3389,"EPHEMERIS_TYPE":0,"CLASSIFICATION_TYPE":"U","NORAD_CAT_ID":48773,"ELEMENT_SET_NO":999,"REV_AT_EPOCH":23788,"BSTAR":-0.00036436000000000004,"MEAN_MOTION_DOT":-1.24e-06,"MEAN_MOTION_DDOT":0.0},{"OBJECT_NAME":"ONEWEB-0243","OBJECT_ID":"2021-045H","EPOCH":"2026-04-29T03:50:29.763744","MEAN_MOTION":13.15549748,"ECCENTRICITY":0.0002292,"INCLINATION":87.8952,"RA_OF_ASC_NODE":268.9962,"ARG_OF_PERICENTER":90.6238,"MEAN_ANOMALY":269.5155,"EPHEMERIS_TYPE":0,"CLASSIFICATION_TYPE":"U","NORAD_CAT_ID":48774,"ELEMENT_SET_NO":999,"REV_AT_EPOCH":23791,"BSTAR":0.0003929,"MEAN_MOTION_DOT":1.61e-06,"MEAN_MOTION_DDOT":0.0},{"OBJECT_NAME":"ONEWEB-0222","OBJECT_ID":"2021-045J","EPOCH":"2026-04-29T03:26:31.742016","MEAN_MOTION":13.15547331,"ECCENTRICITY":0.0001803,"INCLINATION":87.8958,"RA_OF_ASC_NODE":268.9634,"ARG_OF_PERICENTER":92.0062,"MEAN_ANOMALY":268.1275,"EPHEMERIS_TYPE":0,"CLASSIFICATION_TYPE":"U","NORAD_CAT_ID":48775,"ELEMENT_SET_NO":999,"REV_AT_EPOCH":23795,"BSTAR":-0.00050866,"MEAN_MOTION_DOT":-1.79e-06,"MEAN_MOTION_DDOT":0.0},{"OBJECT_NAME":"ONEWEB-0244","OBJECT_ID":"2021-045K","EPOCH":"2026-04-29T04:04:10.712352","MEAN_MOTION":13.15549054,"ECCENTRICITY":0.0001956,"INCLINATION":87.8966,"RA_OF_ASC_NODE":268.9498,"ARG_OF_PERICENTER":93.6394,"MEAN_ANOMALY":266.496,"EPHEMERIS_TYPE":0,"CLASSIFICATION_TYPE":"U","NORAD_CAT_ID":48776,"ELEMENT_SET_NO":999,"REV_AT_EPOCH":23852,"BSTAR":0.00040591,"MEAN_MOTION_DOT":1.66e-06,"MEAN_MOTION_DDOT":0.0},{"OBJECT_NAME":"ONEWEB-0247","OBJECT_ID":"2021-045L","EPOCH":"2026-04-29T03:59:37.554432","MEAN_MOTION":13.15548833,"ECCENTRICITY":0.0002397,"INCLINATION":87.8953,"RA_OF_ASC_NODE":268.9897,"ARG_OF_PERICENTER":81.6953,"MEAN_ANOMALY":278.4449,"EPHEMERIS_TYPE":0,"CLASSIFICATION_TYPE":"U","NORAD_CAT_ID":48777,"ELEMENT_SET_NO":999,"REV_AT_EPOCH":23796,"BSTAR":0.00056563,"MEAN_MOTION_DOT":2.26e-06,"MEAN_MOTION_DDOT":0.0},{"OBJECT_NAME":"ONEWEB-0245","OBJECT_ID":"2021-045M","EPOCH":"2026-04-29T03:52:46.270560","MEAN_MOTION":13.1554802,"ECCENTRICITY":0.000164,"INCLINATION":87.8962,"RA_OF_ASC_NODE":268.9652,"ARG_OF_PERICENTER":92.0571,"MEAN_ANOMALY":268.0747,"EPHEMERIS_TYPE":0,"CLASSIFICATION_TYPE":"U","NORAD_CAT_ID":48778,"ELEMENT_SET_NO":999,"REV_AT_EPOCH":23793,"BSTAR":0.00041732000000000005,"MEAN_MOTION_DOT":1.7e-06,"MEAN_MOTION_DDOT":0.0},{"OBJECT_NAME":"ONEWEB-0229","OBJECT_ID":"2021-045N","EPOCH":"2026-04-29T03:45:55.010880","MEAN_MOTION":13.15549057,"ECCENTRICITY":0.0001938,"INCLINATION":87.896,"RA_OF_ASC_NODE":268.9643,"ARG_OF_PERICENTER":95.75,"MEAN_ANOMALY":264.3851,"EPHEMERIS_TYPE":0,"CLASSIFICATION_TYPE":"U","NORAD_CAT_ID":48779,"ELEMENT_SET_NO":999,"REV_AT_EPOCH":23796,"BSTAR":0.00015527,"MEAN_MOTION_DOT":7.1e-07,"MEAN_MOTION_DDOT":0.0}]