ONEWEB-0208             
1 48243U 21031AK  26119.21622838  .00000038  00000+0  67767-4 0  9996
2 48243  87.8926 299.4778 0001546  81.8937 278.2368 13.14501446241878
ONEWEB-0200             
1 48244U 21031AL  26119.25586851  .00000332  00000+0  86191-3 0  9993
2 48244  87.8922 299.4571 0001606  91.0491 269.0823 13.14503334241806
ONEWEB-0217             
1 48245U 21031AM  26119.19561013  .00000090  00000+0  20730-3 0  9998
2 48245  87.8932 299.4709 0001491  82.3673 277.7626 13.14503050241743
ONEWEB-0211             
1 48767U 21045A   26119.23407286  .00000050  00000+0  97263-4 0  9990
2 48767  87.8956 268.8535 0001601  75.2824 284.8485 13.16193941238000
ONEWEB-0223             
1 48768U 21045B   26119.13629694 -.00000158  00000+0 -45255-3 0  9993
2 48768  87.8960 268.9683 0001857  84.2333 275.9009 13.15548381237956
ONEWEB-0230             
1 48769U 21045C   26119.10777835  .00000129  00000+0  30961-3 0  9996
2 48769  87.8954 268.9923 0001868 101.0954 259.0386 13.15548352238215
ONEWEB-0237             
1 48770U 21045D   26118.94457284  .00000058  00000+0  11970-3 0  9992
2 48770  87.8953 269.0266 0001969  90.8053 269.3303 13.15548038237915
ONEWEB-0235             
1 48771U 21045E   26119.14737480 -.00000112  00000+0 -33134-3 0  9994
2 48771  87.8961 268.9670 0001939  84.9489 275.1863 13.15548702237932
ONEWEB-0242             
1 48772U 21045F   26119.14103174 -.00000140  00000+0 -40490-3 0  9996
2 48772  87.8963 268.9644 0001981  94.7091 265.4266 13.15549053237974
ONEWEB-0241             
1 48773U 21045G   26119.12837568 -.00000124  00000+0 -36436-3 0  9993
2 48773  87.8953 268.9907 0001695  83.7935 276.3389 13.15548375237886
ONEWEB-0243             
1 48774U 21045H   26119.16006671  .00000161  00000+0  39290-3 0  9991
2 48774  87.8952 268.9962 0002292  90.6238 269.5155 13.15549748237918
ONEWEB-0222             
1 48775U 21045J   26119.14342294 -.00000179  00000+0 -50866-3 0  9997
2 48775  87.8958 268.9634 0001803  92.0062 268.1275 13.15547331237957
ONEWEB-0244             
1 48776U 21045K   26119.16956843  .00000166  00000+0  40591-3 0  9999
2 48776  87.8966 268.9498 0001956  93.6394 266.4960 13.15549054238529
ONEWEB-0247             
1 48777U 21045L   26119.16640688  .00000226  00000+0  56563-3 0  9990
2 48777  87.8953 268.9897 0002397  81.6953 278.4449 13.15548833237963
ONEWEB-0245             
1 48778U 21045M   26119.16164665  .00000170  00000+0  41732-3 0  9997
2 48778  87.8962 268.9652 0001640  92.0571 268.0747 13.15548020237936
ONEWEB-0229             
1 48779U 21045N   26119.15688670  .00000071  00000+0  15527-3 0  9997
2 48779  87.8960 268.9643 0001938  95.7500 264.3851 13.15549057237966
